[{"OBJECT_NAME":"GPS BIIF-12 (PRN 32)","OBJECT_ID":"2016-007A","EPOCH":"2022-08-19T08:16:07.338432","MEAN_MOTION":2.00567874,"ECCENTRICITY":0.0062401,"INCLINATION":54.9194,"RA_OF_ASC_NODE":144.9808,"ARG_OF_PERICENTER":230.3998,"MEAN_ANOMALY":129.0684,"EPHEMERIS_TYPE":0,"CLASSIFICATION_TYPE":"U","NORAD_CAT_ID":41328,"ELEMENT_SET_NO":999,"REV_AT_EPOCH":4780,"BSTAR":0,"MEAN_MOTION_DOT":-3.4e-7,"MEAN_MOTION_DDOT":0},{"OBJECT_NAME":"COSMOS 2514 (751)","OBJECT_ID":"2016-008A","EPOCH":"2022-08-18T21:18:05.438016","MEAN_MOTION":2.13102787,"ECCENTRICITY":0.001075,"INCLINATION":65.577,"RA_OF_ASC_NODE":0.584,"ARG_OF_PERICENTER":201.6601,"MEAN_ANOMALY":158.3015,"EPHEMERIS_TYPE":0,"CLASSIFICATION_TYPE":"U","NORAD_CAT_ID":41330,"ELEMENT_SET_NO":999,"REV_AT_EPOCH":5082,"BSTAR":0,"MEAN_MOTION_DOT":-8.4e-7,"MEAN_MOTION_DDOT":0},{"OBJECT_NAME":"IRNSS-1F","OBJECT_ID":"2016-015A","EPOCH":"2022-08-18T22:02:49.365888","MEAN_MOTION":1.00280619,"ECCENTRICITY":0.0017447,"INCLINATION":2.262,"RA_OF_ASC_NODE":152.156,"ARG_OF_PERICENTER":187.0125,"MEAN_ANOMALY":351.401,"EPHEMERIS_TYPE":0,"CLASSIFICATION_TYPE":"U","NORAD_CAT_ID":41384,"ELEMENT_SET_NO":999,"REV_AT_EPOCH":2364,"BSTAR":0,"MEAN_MOTION_DOT":1.52e-6,"MEAN_MOTION_DDOT":0},{"OBJECT_NAME":"BEIDOU IGSO-6 (C13)","OBJECT_ID":"2016-021A","EPOCH":"2022-08-19T06:31:38.830944","MEAN_MOTION":1.00270687,"ECCENTRICITY":0.004436,"INCLINATION":58.191,"RA_OF_ASC_NODE":52.1812,"ARG_OF_PERICENTER":214.9677,"MEAN_ANOMALY":254.3175,"EPHEMERIS_TYPE":0,"CLASSIFICATION_TYPE":"U","NORAD_CAT_ID":41434,"ELEMENT_SET_NO":999,"REV_AT_EPOCH":2346,"BSTAR":0,"MEAN_MOTION_DOT":-1.45e-6,"MEAN_MOTION_DDOT":0},{"OBJECT_NAME":"IRNSS-1G","OBJECT_ID":"2016-027A","EPOCH":"2022-08-19T12:36:50.690880","MEAN_MOTION":1.00275068,"ECCENTRICITY":0.0004105,"INCLINATION":2.1874,"RA_OF_ASC_NODE":154.9224,"ARG_OF_PERICENTER":335.58,"MEAN_ANOMALY":156.1279,"EPHEMERIS_TYPE":0,"CLASSIFICATION_TYPE":"U","NORAD_CAT_ID":41469,"ELEMENT_SET_NO":999,"REV_AT_EPOCH":2316,"BSTAR":0,"MEAN_MOTION_DOT":-3.41e-6,"MEAN_MOTION_DDOT":0},{"OBJECT_NAME":"GSAT0211 (PRN E02)","OBJECT_ID":"2016-030A","EPOCH":"2022-08-17T18:58:29.269920","MEAN_MOTION":1.70475145,"ECCENTRICITY":0.0004736,"INCLINATION":55.7326,"RA_OF_ASC_NODE":260.2038,"ARG_OF_PERICENTER":298.8427,"MEAN_ANOMALY":61.163,"EPHEMERIS_TYPE":0,"CLASSIFICATION_TYPE":"U","NORAD_CAT_ID":41549,"ELEMENT_SET_NO":999,"REV_AT_EPOCH":3881,"BSTAR":0,"MEAN_MOTION_DOT":2.6e-7,"MEAN_MOTION_DDOT":0},{"OBJECT_NAME":"GSAT0210 (PRN E01)","OBJECT_ID":"2016-030B","EPOCH":"2022-08-18T01:59:51.924768","MEAN_MOTION":1.70474604,"ECCENTRICITY":0.000447,"INCLINATION":55.7299,"RA_OF_ASC_NODE":260.1971,"ARG_OF_PERICENTER":273.3223,"MEAN_ANOMALY":86.6802,"EPHEMERIS_TYPE":0,"CLASSIFICATION_TYPE":"U","NORAD_CAT_ID":41550,"ELEMENT_SET_NO":999,"REV_AT_EPOCH":3881,"BSTAR":0,"MEAN_MOTION_DOT":2.8e-7,"MEAN_MOTION_DDOT":0},{"OBJECT_NAME":"COSMOS 2516 (753)","OBJECT_ID":"2016-032A","EPOCH":"2022-08-19T11:54:18.572256","MEAN_MOTION":2.13106426,"ECCENTRICITY":0.001504,"INCLINATION":63.909,"RA_OF_ASC_NODE":239.2565,"ARG_OF_PERICENTER":216.4641,"MEAN_ANOMALY":154.329,"EPHEMERIS_TYPE":0,"CLASSIFICATION_TYPE":"U","NORAD_CAT_ID":41554,"ELEMENT_SET_NO":999,"REV_AT_EPOCH":4844,"BSTAR":0,"MEAN_MOTION_DOT":8.2e-7,"MEAN_MOTION_DDOT":0},{"OBJECT_NAME":"BEIDOU-2 G7 (C03)","OBJECT_ID":"2016-037A","EPOCH":"2022-08-19T12:34:32.843136","MEAN_MOTION":1.00272986,"ECCENTRICITY":0.0008027,"INCLINATION":1.5104,"RA_OF_ASC_NODE":67.1978,"ARG_OF_PERICENTER":358.992,"MEAN_ANOMALY":200.7865,"EPHEMERIS_TYPE":0,"CLASSIFICATION_TYPE":"U","NORAD_CAT_ID":41586,"ELEMENT_SET_NO":999,"REV_AT_EPOCH":2277,"BSTAR":0,"MEAN_MOTION_DOT":-3.6e-6,"MEAN_MOTION_DDOT":0},{"OBJECT_NAME":"E 117 W B (WAAS\/PRN 131)","OBJECT_ID":"2016-038B","EPOCH":"2022-08-18T23:26:03.717888","MEAN_MOTION":1.00272784,"ECCENTRICITY":1.73e-5,"INCLINATION":0.0103,"RA_OF_ASC_NODE":236.2258,"ARG_OF_PERICENTER":172.4325,"MEAN_ANOMALY":153.1605,"EPHEMERIS_TYPE":0,"CLASSIFICATION_TYPE":"U","NORAD_CAT_ID":41589,"ELEMENT_SET_NO":999,"REV_AT_EPOCH":2265,"BSTAR":0,"MEAN_MOTION_DOT":-1.8e-7,"MEAN_MOTION_DDOT":0},{"OBJECT_NAME":"GSAT0207 (PRN E07)","OBJECT_ID":"2016-069A","EPOCH":"2022-08-18T22:02:51.472320","MEAN_MOTION":1.70472783,"ECCENTRICITY":0.0003782,"INCLINATION":54.8304,"RA_OF_ASC_NODE":139.8518,"ARG_OF_PERICENTER":304.2569,"MEAN_ANOMALY":55.7337,"EPHEMERIS_TYPE":0,"CLASSIFICATION_TYPE":"U","NORAD_CAT_ID":41859,"ELEMENT_SET_NO":999,"REV_AT_EPOCH":3556,"BSTAR":0,"MEAN_MOTION_DOT":-3.0e-7,"MEAN_MOTION_DDOT":0},{"OBJECT_NAME":"GSAT0212 (PRN E03)","OBJECT_ID":"2016-069B","EPOCH":"2022-08-18T18:31:46.784928","MEAN_MOTION":1.70472658,"ECCENTRICITY":0.0002771,"INCLINATION":54.8277,"RA_OF_ASC_NODE":139.8533,"ARG_OF_PERICENTER":338.9762,"MEAN_ANOMALY":21.0391,"EPHEMERIS_TYPE":0,"CLASSIFICATION_TYPE":"U","NORAD_CAT_ID":41860,"ELEMENT_SET_NO":999,"REV_AT_EPOCH":3581,"BSTAR":0,"MEAN_MOTION_DOT":-3.0e-7,"MEAN_MOTION_DDOT":0},{"OBJECT_NAME":"GSAT0213 (PRN E04)","OBJECT_ID":"2016-069C","EPOCH":"2022-08-18T13:13:13.410624","MEAN_MOTION":1.70471965,"ECCENTRICITY":0.0003623,"INCLINATION":54.8301,"RA_OF_ASC_NODE":139.8648,"ARG_OF_PERICENTER":279.3258,"MEAN_ANOMALY":80.6603,"EPHEMERIS_TYPE":0,"CLASSIFICATION_TYPE":"U","NORAD_CAT_ID":41861,"ELEMENT_SET_NO":999,"REV_AT_EPOCH":3567,"BSTAR":0,"MEAN_MOTION_DOT":-2.9e-7,"MEAN_MOTION_DDOT":0},{"OBJECT_NAME":"GSAT0214 (PRN E05)","OBJECT_ID":"2016-069D","EPOCH":"2022-08-15T04:16:55.767072","MEAN_MOTION":1.70472585,"ECCENTRICITY":0.0002632,"INCLINATION":54.8275,"RA_OF_ASC_NODE":139.9529,"ARG_OF_PERICENTER":285.1439,"MEAN_ANOMALY":74.853,"EPHEMERIS_TYPE":0,"CLASSIFICATION_TYPE":"U","NORAD_CAT_ID":41862,"ELEMENT_SET_NO":999,"REV_AT_EPOCH":3574,"BSTAR":0,"MEAN_MOTION_DOT":-1.4e-7,"MEAN_MOTION_DDOT":0},{"OBJECT_NAME":"SES-15 (WAAS\/PRN 133)","OBJECT_ID":"2017-026A","EPOCH":"2022-08-19T04:28:03.891360","MEAN_MOTION":1.00276235,"ECCENTRICITY":6.77e-5,"INCLINATION":0.0275,"RA_OF_ASC_NODE":349.1895,"ARG_OF_PERICENTER":198.4004,"MEAN_ANOMALY":77.7781,"EPHEMERIS_TYPE":0,"CLASSIFICATION_TYPE":"U","NORAD_CAT_ID":42709,"ELEMENT_SET_NO":999,"REV_AT_EPOCH":2012,"BSTAR":0,"MEAN_MOTION_DOT":5.3e-7,"MEAN_MOTION_DDOT":0},{"OBJECT_NAME":"QZS-2 (QZSS\/PRN 184)","OBJECT_ID":"2017-028A","EPOCH":"2022-08-19T09:52:38.052192","MEAN_MOTION":1.00270038,"ECCENTRICITY":0.0754369,"INCLINATION":41.6703,"RA_OF_ASC_NODE":263.2804,"ARG_OF_PERICENTER":269.891,"MEAN_ANOMALY":83.8454,"EPHEMERIS_TYPE":0,"CLASSIFICATION_TYPE":"U","NORAD_CAT_ID":42738,"ELEMENT_SET_NO":999,"REV_AT_EPOCH":1913,"BSTAR":0,"MEAN_MOTION_DOT":-1.4e-6,"MEAN_MOTION_DDOT":0},{"OBJECT_NAME":"QZS-3 (QZSS\/PRN 189)","OBJECT_ID":"2017-048A","EPOCH":"2022-08-19T12:25:46.172064","MEAN_MOTION":1.0027169,"ECCENTRICITY":0.0001175,"INCLINATION":0.0664,"RA_OF_ASC_NODE":218.0653,"ARG_OF_PERICENTER":326.6237,"MEAN_ANOMALY":96.6317,"EPHEMERIS_TYPE":0,"CLASSIFICATION_TYPE":"U","NORAD_CAT_ID":42917,"ELEMENT_SET_NO":999,"REV_AT_EPOCH":1824,"BSTAR":0,"MEAN_MOTION_DOT":-3.54e-6,"MEAN_MOTION_DDOT":0}]