NAVSTAR 76 (USA 266)    
1 41328U 16007A   22231.34452938 -.00000034  00000+0  00000+0 0  9996
2 41328  54.9194 144.9808 0062401 230.3998 129.0684  2.00567874 47801
COSMOS 2514 [GLONASS-M] 
1 41330U 16008A   22230.88756294 -.00000084  00000+0  00000+0 0  9995
2 41330  65.5770   0.5840 0010750 201.6601 158.3015  2.13102787 50828
IRNSS-1F                
1 41384U 16015A   22230.91862692  .00000152  00000+0  00000+0 0  9991
2 41384   2.2620 152.1560 0017447 187.0125 351.4010  1.00280619 23647
BEIDOU IGSO-6           
1 41434U 16021A   22231.27197721 -.00000145  00000+0  00000+0 0  9991
2 41434  58.1910  52.1812 0044360 214.9677 254.3175  1.00270687 23467
IRNSS-1G                
1 41469U 16027A   22231.52558670 -.00000341  00000+0  00000+0 0  9995
2 41469   2.1874 154.9224 0004105 335.5800 156.1279  1.00275068 23161
GSAT0211 (GALILEO 14)   
1 41549U 16030A   22229.79061655  .00000026  00000+0  00000+0 0  9995
2 41549  55.7326 260.2038 0004736 298.8427  61.1630  1.70475145 38815
GSAT0210 (GALILEO 13)   
1 41550U 16030B   22230.08323987  .00000028  00000+0  00000+0 0  9992
2 41550  55.7299 260.1971 0004470 273.3223  86.6802  1.70474604 38810
COSMOS 2516 [GLONASS-M] 
1 41554U 16032A   22231.49604829  .00000082  00000+0  00000+0 0  9991
2 41554  63.9090 239.2565 0015040 216.4641 154.3290  2.13106426 48443
BEIDOU-2 G7             
1 41586U 16037A   22231.52399124 -.00000360  00000+0  00000+0 0  9994
2 41586   1.5104  67.1978 0008027 358.9920 200.7865  1.00272986 22779
EUTELSAT 117 WEST B     
1 41589U 16038B   22230.97643192 -.00000018  00000+0  00000+0 0  9993
2 41589   0.0103 236.2258 0000173 172.4325 153.1605  1.00272784 22653
GSAT0207 (GALILEO 15)   
1 41859U 16069A   22230.91865130 -.00000030  00000+0  00000+0 0  9993
2 41859  54.8304 139.8518 0003782 304.2569  55.7337  1.70472783 35565
GSAT0212 (GALILEO 16)   
1 41860U 16069B   22230.77206927 -.00000030  00000+0  00000+0 0  9992
2 41860  54.8277 139.8533 0002771 338.9762  21.0391  1.70472658 35814
GSAT0213 (GALILEO 17)   
1 41861U 16069C   22230.55084966 -.00000029  00000+0  00000+0 0  9994
2 41861  54.8301 139.8648 0003623 279.3258  80.6603  1.70471965 35676
GSAT0214 (GALILEO 18)   
1 41862U 16069D   22227.17842323 -.00000014  00000+0  00000+0 0  9992
2 41862  54.8275 139.9529 0002632 285.1439  74.8530  1.70472585 35742
SES-15                  
1 42709U 17026A   22231.18615615  .00000053  00000+0  00000+0 0  9997
2 42709   0.0275 349.1895 0000677 198.4004  77.7781  1.00276235 20121
QZS-2 (MICHIBIKI-2)     
1 42738U 17028A   22231.41155153 -.00000140  00000+0  00000+0 0  9991
2 42738  41.6703 263.2804 0754369 269.8910  83.8454  1.00270038 19138
QZS-3 (MICHIBIKI-3)     
1 42917U 17048A   22231.51789551 -.00000354  00000+0  00000+0 0  9995
2 42917   0.0664 218.0653 0001175 326.6237  96.6317  1.00271690 18242
